{"type": "FeatureCollection", "name": "nlni_w12_watersheds_amami", "crs": {"type": "name", "properties": {"name": "urn:ogc:def:crs:OGC:1.3:CRS84"}}, "features": [{"type": "Feature", "geometry": {"type": "Polygon", "coordinates": [[[129.69063889, 28.45913889], [129.68908333, 28.46116667], [129.68666667, 28.46211111], [129.68405556, 28.46280556], [129.68336111, 28.46494444], [129.68286111, 28.46530556], [129.68163889, 28.46558333], [129.68047222, 28.46558333], [129.679, 28.46819444], [129.67752778, 28.46938889], [129.67619444, 28.46963889], [129.675, 28.47011111], [129.67413889, 28.47080556], [129.67325, 28.47233333], [129.67136111, 28.47333333], [129.67002778, 28.47352778], [129.66908333, 28.47525], [129.66852778, 28.47733333], [129.66777778, 28.47888889], [129.66658333, 28.47780556], [129.66527778, 28.47719444], [129.66408333, 28.47791667], [129.66397222, 28.48013889], [129.66347222, 28.48144444], [129.66127778, 28.4825], [129.65902778, 28.484], [129.65872222, 28.48655556], [129.65786111, 28.48747222], [129.65733333, 28.48869444], [129.65555556, 28.48991667], [129.65436111, 28.49191667], [129.65341667, 28.49305556], [129.65280556, 28.49483333], [129.65113889, 28.49730556], [129.65113889, 28.49769444], [129.6515, 28.49819444], [129.65411111, 28.4985], [129.65597222, 28.49886111], [129.65597222, 28.49969444], [129.65697222, 28.50022222], [129.65841667, 28.50130556], [129.65933333, 28.50216667], [129.66030556, 28.50197222], [129.66208333, 28.50233333], [129.66369444, 28.49980556], [129.66313889, 28.49719444], [129.66372222, 28.49563889], [129.66488889, 28.49472222], [129.66541667, 28.49405556], [129.66747222, 28.49438889], [129.66875, 28.49275], [129.67011111, 28.49269444], [129.67147222, 28.49158333], [129.67347222, 28.49152778], [129.67491667, 28.49177778], [129.67752778, 28.49169444], [129.68008333, 28.49205556], [129.68191667, 28.491], [129.68241667, 28.48847222], [129.68177778, 28.48711111], [129.68180556, 28.48525], [129.68258333, 28.48333333], [129.68233333, 28.48233333], [129.68197222, 28.48086111], [129.68275, 28.47986111], [129.68277778, 28.47847222], [129.68422222, 28.47647222], [129.68602778, 28.47494444], [129.68711111, 28.47472222], [129.68608333, 28.47172222], [129.68841667, 28.47038889], [129.68872222, 28.46852778], [129.68886111, 28.46602778], [129.68841667, 28.46425], [129.68991667, 28.46216667], [129.69136111, 28.46072222], [129.69336111, 28.45891667], [129.69336111, 28.45891667], [129.69222222, 28.45797222], [129.69063889, 28.45913889]]]}, "properties": {"source_id": "nlni_w12_watersheds_amami", "source_ref": "https://nlftp.mlit.go.jp/ksj/gmlold/data/W12/W12-52A/W12-52A-46-01.0a_GML.zip#W12-52A-2K-46_WatershedBoundary:787", "watershed_id": "89599-0001", "watershed_type_code_raw": "0", "watershed_type_ja": "流域界", "water_system_code_old": "89599", "unit_valley_code": "0001", "area_km2": 6.627705, "centroid_lat": 28.482843, "centroid_lon": 129.671841, "water_system_bureau_ja": "九州地方建設局", "water_system_category_ja": "複合水系域", "water_system_code_w05_estimated": "460000", "water_system_name_ja_estimated": null, "estimate_share": 0.59, "estimate_matched_streams": 2, "estimate_flag": "ok", "main_river_names_ja": "屋仁川|宇津川", "estimate_method": "W05河川(鹿児島,平成19年)の流路を当ポリゴンで交差させ、交差延長最大の水系域コードをWaterSystemCodeCdで名称化した推定値", "data_year": 1977, "prefecture_code": "46", "prefecture_name_ja": "鹿児島県"}}, {"type": "Feature", "geometry": {"type": "Polygon", "coordinates": [[[129.69063889, 28.45913889], [129.69222222, 28.45797222], [129.69336111, 28.45891667], [129.69336111, 28.45891667], [129.69427778, 28.4585], [129.69505556, 28.4575], [129.69588889, 28.45536111], [129.69686111, 28.45288889], [129.69544444, 28.45019444], [129.69452778, 28.44872222], [129.69502778, 28.44747222], [129.69455556, 28.44719444], [129.69641667, 28.4455], [129.69805556, 28.4435], [129.69730556, 28.44113889], [129.69725, 28.43933333], [129.696, 28.43830556], [129.69452778, 28.43675], [129.69325, 28.43505556], [129.69247222, 28.43408333], [129.69130556, 28.43430556], [129.68986111, 28.43238889], [129.688, 28.43222222], [129.68719444, 28.43375], [129.68402778, 28.43619444], [129.68347222, 28.43733333], [129.68244444, 28.4385], [129.68263889, 28.44072222], [129.68216667, 28.442], [129.67994444, 28.443], [129.67883333, 28.44452778], [129.67638889, 28.44488889], [129.67527778, 28.44580556], [129.67461111, 28.44580556], [129.67361111, 28.44644444], [129.67361111, 28.44802778], [129.67216667, 28.44886111], [129.67175, 28.451], [129.67077778, 28.4525], [129.66930556, 28.453], [129.66844444, 28.45336111], [129.66872222, 28.45458333], [129.66930556, 28.45447222], [129.66983333, 28.45491667], [129.67205556, 28.45588889], [129.67330556, 28.45719444], [129.675, 28.45630556], [129.67616667, 28.45616667], [129.67905556, 28.45727778], [129.68077778, 28.45680556], [129.68147222, 28.45686111], [129.68397222, 28.45833333], [129.68533333, 28.45811111], [129.68802778, 28.45811111], [129.68966667, 28.45908333], [129.69063889, 28.45913889]]]}, "properties": {"source_id": "nlni_w12_watersheds_amami", "source_ref": "https://nlftp.mlit.go.jp/ksj/gmlold/data/W12/W12-52A/W12-52A-46-01.0a_GML.zip#W12-52A-2K-46_WatershedBoundary:788", "watershed_id": "89599-0002", "watershed_type_code_raw": "0", "watershed_type_ja": "流域界", "water_system_code_old": "89599", "unit_valley_code": "0002", "area_km2": 4.942711, "centroid_lat": 28.447688, "centroid_lon": 129.68585, "water_system_bureau_ja": "九州地方建設局", "water_system_category_ja": "複合水系域", "water_system_code_w05_estimated": "460122", "water_system_name_ja_estimated": "前田川", "estimate_share": 0.8699, "estimate_matched_streams": 2, "estimate_flag": "ok", "main_river_names_ja": "前田川", "estimate_method": "W05河川(鹿児島,平成19年)の流路を当ポリゴンで交差させ、交差延長最大の水系域コードをWaterSystemCodeCdで名称化した推定値", "data_year": 1977, "prefecture_code": "46", "prefecture_name_ja": "鹿児島県"}}, {"type": "Feature", "geometry": {"type": "Polygon", "coordinates": [[[129.54994444, 28.44197222], [129.55191667, 28.44433333], [129.55286111, 28.44608333], [129.55513889, 28.44633333], [129.55852778, 28.44661111], [129.56036111, 28.44763889], [129.56055556, 28.44827778], [129.5615, 28.44888889], [129.56263889, 28.44969444], [129.56386111, 28.44936111], [129.56552778, 28.44916667], [129.56697222, 28.44669444], [129.5665, 28.44472222], [129.56655556, 28.44261111], [129.56905556, 28.43811111], [129.57044444, 28.43461111], [129.56763889, 28.43166667], [129.56558333, 28.42888889], [129.56375, 28.42697222], [129.56344444, 28.42611111], [129.56380556, 28.42530556], [129.56519444, 28.42211111], [129.56694444, 28.42091667], [129.56897222, 28.42058333], [129.57, 28.42041667], [129.57, 28.42041667], [129.56975, 28.41791667], [129.57108333, 28.41519444], [129.57369444, 28.41369444], [129.57377778, 28.41219444], [129.57386111, 28.41080556], [129.57319444, 28.40833333], [129.57372222, 28.40772222], [129.57377778, 28.40716667], [129.57252778, 28.40505556], [129.57252778, 28.40505556], [129.57058333, 28.40461111], [129.569, 28.40263889], [129.56744444, 28.40044444], [129.56611111, 28.39877778], [129.56472222, 28.39811111], [129.56325, 28.39738889], [129.56111111, 28.39627778], [129.55827778, 28.39655556], [129.55622222, 28.39663889], [129.55483333, 28.39494444], [129.55358333, 28.39452778], [129.55358333, 28.39452778], [129.55205556, 28.3955], [129.55238889, 28.39691667], [129.55072222, 28.39902778], [129.54922222, 28.39961111], [129.54927778, 28.40105556], [129.54708333, 28.40177778], [129.54472222, 28.40177778], [129.54325, 28.40258333], [129.54047222, 28.40222222], [129.54047222, 28.40222222], [129.54122222, 28.40333333], [129.54302778, 28.40586111], [129.54297222, 28.40716667], [129.54394444, 28.40836111], [129.54619444, 28.40966667], [129.54658333, 28.41136111], [129.548, 28.41202778], [129.54813889, 28.41430556], [129.54866667, 28.41533333], [129.54833333, 28.417], [129.54838889, 28.41925], [129.54769444, 28.42041667], [129.54763889, 28.42041667], [129.54763889, 28.42041667], [129.54755556, 28.42102778], [129.54658333, 28.42361111], [129.54519444, 28.42461111], [129.54513889, 28.42763889], [129.54733333, 28.43213889], [129.54852778, 28.43311111], [129.54988889, 28.4355], [129.54955556, 28.43680556], [129.54975, 28.43894444], [129.54994444, 28.44197222]]]}, "properties": {"source_id": "nlni_w12_watersheds_amami", "source_ref": "https://nlftp.mlit.go.jp/ksj/gmlold/data/W12/W12-52A/W12-52A-46-01.0a_GML.zip#W12-52A-2K-46_WatershedBoundary:789", "watershed_id": "89599-0003", "watershed_type_code_raw": "0", "watershed_type_ja": "流域界", "water_system_code_old": "89599", "unit_valley_code": "0003", "area_km2": 11.638917, "centroid_lat": 28.420348, "centroid_lon": 129.558242, "water_system_bureau_ja": "九州地方建設局", "water_system_category_ja": "複合水系域", "water_system_code_w05_estimated": "460119", "water_system_name_ja_estimated": "秋名川", "estimate_share": 0.7459, "estimate_matched_streams": 2, "estimate_flag": "ok", "main_river_names_ja": "秋名川", "estimate_method": "W05河川(鹿児島,平成19年)の流路を当ポリゴンで交差させ、交差延長最大の水系域コードをWaterSystemCodeCdで名称化した推定値", "data_year": 1977, "prefecture_code": "46", "prefecture_name_ja": "鹿児島県"}}, {"type": "Feature", "geometry": {"type": "Polygon", "coordinates": [[[129.53780556, 28.42041667], [129.5385, 28.42175], [129.53816667, 28.42425], [129.53688889, 28.42688889], [129.53866667, 28.43163889], [129.53922222, 28.43388889], [129.53863889, 28.436], [129.53775, 28.43716667], [129.53769444, 28.43861111], [129.53638889, 28.44066667], [129.53480556, 28.44433333], [129.53438889, 28.44655556], [129.53472222, 28.44802778], [129.53463889, 28.44908333], [129.53602778, 28.45119444], [129.53791667, 28.45127778], [129.53997222, 28.45141667], [129.54155556, 28.45058333], [129.54263889, 28.449], [129.54427778, 28.44883333], [129.54511111, 28.44833333], [129.54647222, 28.44769444], [129.54691667, 28.44602778], [129.54708333, 28.44441667], [129.54883333, 28.44272222], [129.54994444, 28.44197222], [129.54994444, 28.44197222], [129.54975, 28.43894444], [129.54955556, 28.43680556], [129.54988889, 28.4355], [129.54852778, 28.43311111], [129.54733333, 28.43213889], [129.54513889, 28.42763889], [129.54519444, 28.42461111], [129.54658333, 28.42361111], [129.54755556, 28.42102778], [129.54763889, 28.42041667], [129.54769444, 28.42041667], [129.54769444, 28.42041667], [129.54838889, 28.41925], [129.54833333, 28.417], [129.54866667, 28.41533333], [129.54813889, 28.41430556], [129.548, 28.41202778], [129.54658333, 28.41136111], [129.54619444, 28.40966667], [129.54394444, 28.40836111], [129.54297222, 28.40716667], [129.54302778, 28.40586111], [129.54122222, 28.40333333], [129.54047222, 28.40222222], [129.54047222, 28.40222222], [129.53841667, 28.40355556], [129.53541667, 28.40458333], [129.53288889, 28.40572222], [129.53288889, 28.40572222], [129.53261111, 28.40736111], [129.53263889, 28.40980556], [129.53169444, 28.41127778], [129.53433333, 28.41463889], [129.53658333, 28.41844444], [129.53791667, 28.42041667], [129.53780556, 28.42041667]]]}, "properties": {"source_id": "nlni_w12_watersheds_amami", "source_ref": "https://nlftp.mlit.go.jp/ksj/gmlold/data/W12/W12-52A/W12-52A-46-01.0a_GML.zip#W12-52A-2K-46_WatershedBoundary:790", "watershed_id": "89599-0004", "watershed_type_code_raw": "0", "watershed_type_ja": "流域界", "water_system_code_old": "89599", "unit_valley_code": "0004", "area_km2": 5.591754, "centroid_lat": 28.427074, "centroid_lon": 129.541449, "water_system_bureau_ja": "九州地方建設局", "water_system_category_ja": "複合水系域", "water_system_code_w05_estimated": "460118", "water_system_name_ja_estimated": "芦花部川", "estimate_share": 1.0, "estimate_matched_streams": 1, "estimate_flag": "ok", "main_river_names_ja": "芦花部川", "estimate_method": "W05河川(鹿児島,平成19年)の流路を当ポリゴンで交差させ、交差延長最大の水系域コードをWaterSystemCodeCdで名称化した推定値", "data_year": 1977, "prefecture_code": "46", "prefecture_name_ja": "鹿児島県"}}, {"type": "Feature", "geometry": {"type": "Polygon", "coordinates": [[[129.55236111, 28.38302778], [129.5515, 28.38177778], [129.55027778, 28.3815], [129.54919444, 28.38047222], [129.54788889, 28.37980556], [129.54547222, 28.37927778], [129.54441667, 28.37830556], [129.54275, 28.37802778], [129.54136111, 28.37591667], [129.54102778, 28.37372222], [129.54122222, 28.37180556], [129.54108333, 28.37113889], [129.54138889, 28.37030556], [129.54111111, 28.36947222], [129.53983333, 28.36958333], [129.53888889, 28.36841667], [129.53775, 28.36816667], [129.53736111, 28.36658333], [129.53619444, 28.36597222], [129.53505556, 28.36577778], [129.53347222, 28.36641667], [129.53225, 28.36644444], [129.53102778, 28.36697222], [129.52958333, 28.36652778], [129.52958333, 28.36652778], [129.52966667, 28.36938889], [129.53002778, 28.37036111], [129.5305, 28.37208333], [129.53272222, 28.37419444], [129.53169444, 28.37605556], [129.53211111, 28.37786111], [129.53105556, 28.37919444], [129.53211111, 28.381], [129.53477778, 28.3835], [129.53505556, 28.38636111], [129.53355556, 28.38880556], [129.53172222, 28.39038889], [129.52880556, 28.39094444], [129.52683333, 28.39505556], [129.52466667, 28.39925], [129.52466667, 28.39925], [129.52522222, 28.39958333], [129.526, 28.39958333], [129.52622222, 28.40172222], [129.52727778, 28.40269444], [129.52938889, 28.403], [129.53066667, 28.40436111], [129.53288889, 28.40572222], [129.53288889, 28.40572222], [129.53541667, 28.40458333], [129.53841667, 28.40355556], [129.54047222, 28.40222222], [129.54047222, 28.40222222], [129.54325, 28.40258333], [129.54472222, 28.40177778], [129.54708333, 28.40177778], [129.54927778, 28.40105556], [129.54922222, 28.39961111], [129.55072222, 28.39902778], [129.55238889, 28.39691667], [129.55205556, 28.3955], [129.55358333, 28.39452778], [129.55358333, 28.39452778], [129.55252778, 28.39277778], [129.55136111, 28.39108333], [129.55116667, 28.38919444], [129.55252778, 28.38794444], [129.55261111, 28.38472222], [129.55236111, 28.38302778]]]}, "properties": {"source_id": "nlni_w12_watersheds_amami", "source_ref": "https://nlftp.mlit.go.jp/ksj/gmlold/data/W12/W12-52A/W12-52A-46-01.0a_GML.zip#W12-52A-2K-46_WatershedBoundary:791", "watershed_id": "89599-0005", "watershed_type_code_raw": "0", "watershed_type_ja": "流域界", "water_system_code_old": "89599", "unit_valley_code": "0005", "area_km2": 6.954911, "centroid_lat": 28.388362, "centroid_lon": 129.539325, "water_system_bureau_ja": "九州地方建設局", "water_system_category_ja": "複合水系域", "water_system_code_w05_estimated": "460117", "water_system_name_ja_estimated": "浦上川", "estimate_share": 0.8595, "estimate_matched_streams": 2, "estimate_flag": "ok", "main_river_names_ja": "浦上川", "estimate_method": "W05河川(鹿児島,平成19年)の流路を当ポリゴンで交差させ、交差延長最大の水系域コードをWaterSystemCodeCdで名称化した推定値", "data_year": 1977, "prefecture_code": "46", "prefecture_name_ja": "鹿児島県"}}, {"type": "Feature", "geometry": {"type": "Polygon", "coordinates": [[[129.52733333, 28.36136111], [129.52647222, 28.36138889], [129.52575, 28.36063889], [129.52452778, 28.35947222], [129.52413889, 28.35569444], [129.52238889, 28.35416667], [129.52238889, 28.35416667], [129.52080556, 28.35475], [129.51844444, 28.35438889], [129.51844444, 28.35438889], [129.51755556, 28.35463889], [129.51711111, 28.35738889], [129.51633333, 28.35905556], [129.51516667, 28.36266667], [129.51480556, 28.36541667], [129.51369444, 28.36727778], [129.51191667, 28.36794444], [129.51169444, 28.36933333], [129.51011111, 28.37330556], [129.50872222, 28.37436111], [129.50816667, 28.37736111], [129.50816667, 28.37736111], [129.50866667, 28.38019444], [129.51044444, 28.38438889], [129.51097222, 28.38672222], [129.51280556, 28.38855556], [129.51316667, 28.39013889], [129.51455556, 28.39163889], [129.51769444, 28.39208333], [129.52197222, 28.39327778], [129.52211111, 28.39558333], [129.52347222, 28.39722222], [129.52466667, 28.39925], [129.52466667, 28.39925], [129.52683333, 28.39505556], [129.52880556, 28.39094444], [129.53172222, 28.39038889], [129.53355556, 28.38880556], [129.53505556, 28.38636111], [129.53477778, 28.3835], [129.53211111, 28.381], [129.53105556, 28.37919444], [129.53211111, 28.37786111], [129.53169444, 28.37605556], [129.53272222, 28.37419444], [129.5305, 28.37208333], [129.53002778, 28.37036111], [129.52966667, 28.36938889], [129.52958333, 28.36652778], [129.52958333, 28.36652778], [129.52925, 28.36597222], [129.5295, 28.36455556], [129.52844444, 28.36419444], [129.52813889, 28.36372222], [129.52716667, 28.36344444], [129.52733333, 28.36136111]]]}, "properties": {"source_id": "nlni_w12_watersheds_amami", "source_ref": "https://nlftp.mlit.go.jp/ksj/gmlold/data/W12/W12-52A/W12-52A-46-01.0a_GML.zip#W12-52A-2K-46_WatershedBoundary:792", "watershed_id": "89599-0006", "watershed_type_code_raw": "0", "watershed_type_ja": "流域界", "water_system_code_old": "89599", "unit_valley_code": "0006", "area_km2": 7.558887, "centroid_lat": 28.376952, "centroid_lon": 129.521444, "water_system_bureau_ja": "九州地方建設局", "water_system_category_ja": "複合水系域", "water_system_code_w05_estimated": "460117", "water_system_name_ja_estimated": "浦上川", "estimate_share": 1.0, "estimate_matched_streams": 1, "estimate_flag": "ok", "main_river_names_ja": "有屋川|仲勝川", "estimate_method": "W05河川(鹿児島,平成19年)の流路を当ポリゴンで交差させ、交差延長最大の水系域コードをWaterSystemCodeCdで名称化した推定値", "data_year": 1977, "prefecture_code": "46", "prefecture_name_ja": "鹿児島県"}}, {"type": "Feature", "geometry": {"type": "Polygon", "coordinates": [[[129.50816667, 28.37736111], [129.50872222, 28.37436111], [129.51011111, 28.37330556], [129.51169444, 28.36933333], [129.51191667, 28.36794444], [129.51369444, 28.36727778], [129.51480556, 28.36541667], [129.51516667, 28.36266667], [129.51633333, 28.35905556], [129.51711111, 28.35738889], [129.51755556, 28.35463889], [129.51844444, 28.35438889], [129.51844444, 28.35438889], [129.51633333, 28.35277778], [129.51411111, 28.35286111], [129.51386111, 28.35247222], [129.51372222, 28.35177778], [129.51338889, 28.34922222], [129.51197222, 28.34725], [129.51025, 28.34705556], [129.50969444, 28.34658333], [129.50958333, 28.34594444], [129.51013889, 28.34505556], [129.50988889, 28.34383333], [129.50927778, 28.34319444], [129.50805556, 28.34294444], [129.50566667, 28.34419444], [129.50277778, 28.34502778], [129.50091667, 28.34577778], [129.49919444, 28.34525], [129.49791667, 28.34697222], [129.49791667, 28.34672222], [129.49791667, 28.34672222], [129.49761111, 28.34847222], [129.49616667, 28.34983333], [129.49488889, 28.34836111], [129.49325, 28.34897222], [129.49161111, 28.34841667], [129.48883333, 28.34875], [129.488, 28.35063889], [129.4865, 28.35216667], [129.48530556, 28.35394444], [129.48536111, 28.35569444], [129.48408333, 28.35691667], [129.48197222, 28.35688889], [129.48066667, 28.35647222], [129.47983333, 28.35702778], [129.48136111, 28.35880556], [129.48169444, 28.36069444], [129.48169444, 28.36069444], [129.48266667, 28.36144444], [129.48372222, 28.36275], [129.48602778, 28.36288889], [129.48761111, 28.36394444], [129.48913889, 28.36397222], [129.49119444, 28.36669444], [129.49211111, 28.36919444], [129.49416667, 28.37288889], [129.49583333, 28.37566667], [129.49602778, 28.38125], [129.49647222, 28.38127778], [129.49730556, 28.38161111], [129.49791667, 28.38083333], [129.49791667, 28.38141667], [129.49791667, 28.38141667], [129.49897222, 28.37994444], [129.50166667, 28.37883333], [129.50513889, 28.37816667], [129.50816667, 28.37736111]]]}, "properties": {"source_id": "nlni_w12_watersheds_amami", "source_ref": "https://nlftp.mlit.go.jp/ksj/gmlold/data/W12/W12-52A/W12-52A-46-01.0a_GML.zip#W12-52A-2K-46_WatershedBoundary:793", "watershed_id": "89599-0007", "watershed_type_code_raw": "0", "watershed_type_ja": "流域界", "water_system_code_old": "89599", "unit_valley_code": "0007", "area_km2": 8.636647, "centroid_lat": 28.360645, "centroid_lon": 129.50106, "water_system_bureau_ja": "九州地方建設局", "water_system_category_ja": "複合水系域", "water_system_code_w05_estimated": "460142", "water_system_name_ja_estimated": "新川", "estimate_share": 0.5359, "estimate_matched_streams": 2, "estimate_flag": "ok", "main_river_names_ja": "新川", "estimate_method": "W05河川(鹿児島,平成19年)の流路を当ポリゴンで交差させ、交差延長最大の水系域コードをWaterSystemCodeCdで名称化した推定値", "data_year": 1977, "prefecture_code": "46", "prefecture_name_ja": "鹿児島県"}}, {"type": "Feature", "geometry": {"type": "Polygon", "coordinates": [[[129.46069444, 28.36202778], [129.45938889, 28.36019444], [129.45761111, 28.36052778], [129.45758333, 28.35852778], [129.45616667, 28.35755556], [129.45402778, 28.35675], [129.45305556, 28.35394444], [129.45241667, 28.35316667], [129.45238889, 28.35194444], [129.44969444, 28.35044444], [129.44944444, 28.349], [129.44836111, 28.34794444], [129.44916667, 28.34697222], [129.44802778, 28.34588889], [129.44727778, 28.34372222], [129.44636111, 28.33908333], [129.44488889, 28.338], [129.44488889, 28.338], [129.44325, 28.33980556], [129.43975, 28.34147222], [129.43747222, 28.34158333], [129.43441667, 28.34108333], [129.43194444, 28.34183333], [129.42952778, 28.34194444], [129.42827778, 28.34405556], [129.42630556, 28.34569444], [129.42630556, 28.34569444], [129.42644444, 28.34869444], [129.42544444, 28.35083333], [129.42458333, 28.35236111], [129.42505556, 28.35419444], [129.42469444, 28.35586111], [129.42533333, 28.35791667], [129.42644444, 28.36125], [129.42569444, 28.36336111], [129.42825, 28.36538889], [129.43077778, 28.36672222], [129.43402778, 28.3675], [129.43572222, 28.3685], [129.43833333, 28.36905556], [129.44016667, 28.37138889], [129.44147222, 28.37166667], [129.44286111, 28.37491667], [129.44286111, 28.37663889], [129.44388889, 28.37861111], [129.44613889, 28.38080556], [129.44752778, 28.38086111], [129.44833333, 28.37913889], [129.45605556, 28.37652778], [129.45630556, 28.37486111], [129.45669444, 28.37377778], [129.45669444, 28.37247222], [129.45827778, 28.37047222], [129.45813889, 28.36791667], [129.46002778, 28.36669444], [129.45997222, 28.36508333], [129.46111111, 28.36361111], [129.46069444, 28.36202778]]]}, "properties": {"source_id": "nlni_w12_watersheds_amami", "source_ref": "https://nlftp.mlit.go.jp/ksj/gmlold/data/W12/W12-52A/W12-52A-46-01.0a_GML.zip#W12-52A-2K-46_WatershedBoundary:794", "watershed_id": "89599-0008", "watershed_type_code_raw": "0", "watershed_type_ja": "流域界", "water_system_code_old": "89599", "unit_valley_code": "0008", "area_km2": 9.770016, "centroid_lat": 28.358938, "centroid_lon": 129.442217, "water_system_bureau_ja": "九州地方建設局", "water_system_category_ja": "複合水系域", "water_system_code_w05_estimated": "460140", "water_system_name_ja_estimated": "知名瀬川", "estimate_share": 0.8063, "estimate_matched_streams": 2, "estimate_flag": "ok", "main_river_names_ja": "知名瀬川", "estimate_method": "W05河川(鹿児島,平成19年)の流路を当ポリゴンで交差させ、交差延長最大の水系域コードをWaterSystemCodeCdで名称化した推定値", "data_year": 1977, "prefecture_code": "46", "prefecture_name_ja": "鹿児島県"}}, {"type": "Feature", "geometry": {"type": "Polygon", "coordinates": [[[129.40138889, 28.34155556], [129.40094444, 28.34080556], [129.40058333, 28.34], [129.40055556, 28.33927778], [129.40066667, 28.338], [129.40022222, 28.33797222], [129.39958333, 28.33852778], [129.39852778, 28.33902778], [129.39730556, 28.33927778], [129.39680556, 28.33888889], [129.39625, 28.33808333], [129.39552778, 28.33708333], [129.39561111, 28.33708333], [129.39561111, 28.33708333], [129.39513889, 28.33475], [129.39613889, 28.33272222], [129.39447222, 28.33063889], [129.39405556, 28.32888889], [129.39263889, 28.32722222], [129.39183333, 28.32597222], [129.38913889, 28.32558333], [129.38563889, 28.32466667], [129.38308333, 28.32366667], [129.38244444, 28.32252778], [129.38244444, 28.32252778], [129.38063889, 28.32388889], [129.37886111, 28.32419444], [129.37736111, 28.32638889], [129.37533333, 28.32875], [129.37291667, 28.32883333], [129.37291667, 28.32877778], [129.37291667, 28.32877778], [129.37166667, 28.32936111], [129.37011111, 28.32875], [129.36916667, 28.33133333], [129.36775, 28.33205556], [129.36630556, 28.33255556], [129.36455556, 28.33361111], [129.36408333, 28.33577778], [129.36266667, 28.33686111], [129.36266667, 28.33686111], [129.36272222, 28.33708333], [129.36258333, 28.33708333], [129.36258333, 28.33708333], [129.36325, 28.33805556], [129.36494444, 28.33977778], [129.36725, 28.34063889], [129.36894444, 28.34244444], [129.36930556, 28.34419444], [129.37136111, 28.34536111], [129.37158333, 28.34658333], [129.37269444, 28.34805556], [129.37244444, 28.34991667], [129.37291667, 28.35086111], [129.37291667, 28.35116667], [129.37291667, 28.35116667], [129.37416667, 28.35319444], [129.37563889, 28.35597222], [129.37797222, 28.35622222], [129.37877778, 28.35758333], [129.38513889, 28.35891667], [129.39075, 28.36061111], [129.39197222, 28.36202778], [129.39266667, 28.36191667], [129.393, 28.36019444], [129.39480556, 28.35866667], [129.3965, 28.35819444], [129.39727778, 28.35736111], [129.39816667, 28.35630556], [129.39797222, 28.35352778], [129.39941667, 28.35069444], [129.39997222, 28.34891667], [129.40111111, 28.34575], [129.40141667, 28.34322222], [129.40138889, 28.34155556]]]}, "properties": {"source_id": "nlni_w12_watersheds_amami", "source_ref": "https://nlftp.mlit.go.jp/ksj/gmlold/data/W12/W12-52A/W12-52A-46-01.0a_GML.zip#W12-52A-2K-46_WatershedBoundary:795", "watershed_id": "89599-0009", "watershed_type_code_raw": "0", "watershed_type_ja": "流域界", "water_system_code_old": "89599", "unit_valley_code": "0009", "area_km2": 9.957214, "centroid_lat": 28.341979, "centroid_lon": 129.384023, "water_system_bureau_ja": "九州地方建設局", "water_system_category_ja": "複合水系域", "water_system_code_w05_estimated": "460139", "water_system_name_ja_estimated": "大和川", "estimate_share": 0.7705, "estimate_matched_streams": 2, "estimate_flag": "ok", "main_river_names_ja": "大和川|三田川", "estimate_method": "W05河川(鹿児島,平成19年)の流路を当ポリゴンで交差させ、交差延長最大の水系域コードをWaterSystemCodeCdで名称化した推定値", "data_year": 1977, "prefecture_code": "46", "prefecture_name_ja": "鹿児島県"}}, {"type": "Feature", "geometry": {"type": "Polygon", "coordinates": [[[129.32311111, 28.33708333], [129.32419444, 28.33694444], [129.32588889, 28.33708333], [129.3255, 28.33708333], [129.3255, 28.33708333], [129.32644444, 28.33772222], [129.32927778, 28.33805556], [129.33013889, 28.33708333], [129.33022222, 28.33708333], [129.33022222, 28.33708333], [129.33183333, 28.33608333], [129.33386111, 28.33533333], [129.33386111, 28.33533333], [129.33352778, 28.33183333], [129.33244444, 28.33036111], [129.33136111, 28.32852778], [129.33205556, 28.32686111], [129.33277778, 28.32522222], [129.33316667, 28.32383333], [129.33427778, 28.32255556], [129.33591667, 28.32133333], [129.33633333, 28.31988889], [129.33591667, 28.31811111], [129.33416667, 28.31669444], [129.33544444, 28.31475], [129.33691667, 28.31263889], [129.33733333, 28.31058333], [129.33777778, 28.30841667], [129.3365, 28.30772222], [129.33622222, 28.30625], [129.33458333, 28.30497222], [129.33272222, 28.30272222], [129.33186111, 28.30072222], [129.33136111, 28.29808333], [129.33105556, 28.29647222], [129.33105556, 28.29647222], [129.32413889, 28.29611111], [129.32130556, 28.29638889], [129.32130556, 28.29638889], [129.31863889, 28.29633333], [129.31727778, 28.29713889], [129.31572222, 28.29727778], [129.31363889, 28.30088889], [129.31219444, 28.30141667], [129.31077778, 28.30427778], [129.30783333, 28.309], [129.30602778, 28.30958333], [129.30466667, 28.31002778], [129.30480556, 28.31166667], [129.30625, 28.31419444], [129.30638889, 28.31588889], [129.30513889, 28.31858333], [129.30466667, 28.32102778], [129.30558333, 28.3225], [129.30716667, 28.32552778], [129.30902778, 28.32683333], [129.31144444, 28.32816667], [129.31216667, 28.32944444], [129.31288889, 28.33191667], [129.31266667, 28.33383333], [129.31269444, 28.3355], [129.31386111, 28.33552778], [129.31397222, 28.33630556], [129.31638889, 28.33541667], [129.32025, 28.33708333], [129.32030556, 28.33708333], [129.32030556, 28.33708333], [129.32122222, 28.33758333], [129.32311111, 28.33708333]]]}, "properties": {"source_id": "nlni_w12_watersheds_amami", "source_ref": "https://nlftp.mlit.go.jp/ksj/gmlold/data/W12/W12-52A/W12-52A-46-01.0a_GML.zip#W12-52A-2K-46_WatershedBoundary:796", "watershed_id": "89599-0010", "watershed_type_code_raw": "0", "watershed_type_ja": "流域界", "water_system_code_old": "89599", "unit_valley_code": "0010", "area_km2": 10.893552, "centroid_lat": 28.316672, "centroid_lon": 129.321626, "water_system_bureau_ja": "九州地方建設局", "water_system_category_ja": "複合水系域", "water_system_code_w05_estimated": "460138", "water_system_name_ja_estimated": "名音川", "estimate_share": 0.7105, "estimate_matched_streams": 2, "estimate_flag": "ok", "main_river_names_ja": "名音川", "estimate_method": "W05河川(鹿児島,平成19年)の流路を当ポリゴンで交差させ、交差延長最大の水系域コードをWaterSystemCodeCdで名称化した推定値", "data_year": 1977, "prefecture_code": "46", "prefecture_name_ja": "鹿児島県"}}, {"type": "Feature", "geometry": {"type": "Polygon", "coordinates": [[[129.24791667, 28.30580556], [129.25072222, 28.30575], [129.25155556, 28.30733333], [129.25325, 28.30994444], [129.25363889, 28.31119444], [129.25544444, 28.31197222], [129.25577778, 28.31361111], [129.25836111, 28.31427778], [129.26077778, 28.31713889], [129.26455556, 28.3175], [129.26536111, 28.3155], [129.26722222, 28.31452778], [129.26836111, 28.31302778], [129.27102778, 28.31183333], [129.27386111, 28.31119444], [129.27527778, 28.31188889], [129.27741667, 28.31247222], [129.27852778, 28.31358333], [129.28038889, 28.31466667], [129.28172222, 28.31433333], [129.28363889, 28.31419444], [129.28502778, 28.31280556], [129.28527778, 28.31080556], [129.28536111, 28.30877778], [129.28733333, 28.30652778], [129.28836111, 28.30486111], [129.28683333, 28.30272222], [129.28466667, 28.30155556], [129.28313889, 28.30102778], [129.28194444, 28.29797222], [129.28038889, 28.29719444], [129.27927778, 28.29611111], [129.27758333, 28.29675], [129.27575, 28.29605556], [129.27386111, 28.29447222], [129.27138889, 28.29352778], [129.26905556, 28.29272222], [129.26736111, 28.29113889], [129.26683333, 28.29030556], [129.26480556, 28.28952778], [129.26222222, 28.2895], [129.25841667, 28.28872222], [129.25541667, 28.28841667], [129.25291667, 28.28869444], [129.25113889, 28.29186111], [129.24944444, 28.29391667], [129.24875, 28.29533333], [129.24791667, 28.29577778], [129.24791667, 28.29583333], [129.24791667, 28.29583333], [129.24675, 28.29705556], [129.24575, 28.29908333], [129.24672222, 28.30055556], [129.24602778, 28.30125], [129.24555556, 28.30369444], [129.2465, 28.30480556], [129.24791667, 28.30572222], [129.24791667, 28.30580556]]]}, "properties": {"source_id": "nlni_w12_watersheds_amami", "source_ref": "https://nlftp.mlit.go.jp/ksj/gmlold/data/W12/W12-52A/W12-52A-46-01.0a_GML.zip#W12-52A-2K-46_WatershedBoundary:797", "watershed_id": "89599-0011", "watershed_type_code_raw": "0", "watershed_type_ja": "流域界", "water_system_code_old": "89599", "unit_valley_code": "0011", "area_km2": 8.391158, "centroid_lat": 28.302744, "centroid_lon": 129.265609, "water_system_bureau_ja": "九州地方建設局", "water_system_category_ja": "複合水系域", "water_system_code_w05_estimated": "460406", "water_system_name_ja_estimated": "大良川", "estimate_share": 1.0, "estimate_matched_streams": 1, "estimate_flag": "ok", "main_river_names_ja": "大良川", "estimate_method": "W05河川(鹿児島,平成19年)の流路を当ポリゴンで交差させ、交差延長最大の水系域コードをWaterSystemCodeCdで名称化した推定値", "data_year": 1977, "prefecture_code": "46", "prefecture_name_ja": "鹿児島県"}}, {"type": "Feature", "geometry": {"type": "Polygon", "coordinates": [[[129.38469444, 28.2665], [129.38566667, 28.26544444], [129.38552778, 28.26408333], [129.38455556, 28.26344444], [129.38436111, 28.26177778], [129.38094444, 28.25891667], [129.38052778, 28.25763889], [129.37947222, 28.25702778], [129.37836111, 28.25602778], [129.37594444, 28.25641667], [129.37291667, 28.25625], [129.37291667, 28.25591667], [129.37291667, 28.25591667], [129.37041667, 28.256], [129.37, 28.25377778], [129.36991667, 28.25377778], [129.36991667, 28.25377778], [129.36916667, 28.25308333], [129.36872222, 28.25169444], [129.36825, 28.25058333], [129.36816667, 28.24933333], [129.36594444, 28.24963889], [129.36452778, 28.24938889], [129.36355556, 28.24961111], [129.36258333, 28.25016667], [129.36191667, 28.25025], [129.36072222, 28.24683333], [129.35955556, 28.24663889], [129.35933333, 28.24525], [129.35827778, 28.24527778], [129.35619444, 28.24602778], [129.35394444, 28.24691667], [129.35216667, 28.24580556], [129.34961111, 28.24619444], [129.34863889, 28.24666667], [129.34816667, 28.24597222], [129.34852778, 28.24472222], [129.34783333, 28.24322222], [129.34736111, 28.24322222], [129.34697222, 28.24283333], [129.34644444, 28.24086111], [129.34380556, 28.23875], [129.34319444, 28.23986111], [129.34141667, 28.23941667], [129.33661111, 28.23997222], [129.33491667, 28.23733333], [129.33369444, 28.23733333], [129.33094444, 28.23597222], [129.32827778, 28.23511111], [129.32752778, 28.23363889], [129.32566667, 28.234], [129.32491667, 28.23541667], [129.32480556, 28.23666667], [129.32322222, 28.23733333], [129.32147222, 28.23730556], [129.32019444, 28.23891667], [129.31861111, 28.23852778], [129.3185, 28.23741667], [129.31558333, 28.23594444], [129.31447222, 28.23388889], [129.31188889, 28.23336111], [129.31047222, 28.23325], [129.31047222, 28.23325], [129.31022222, 28.23416667], [129.30897222, 28.23463889], [129.30625, 28.23827778], [129.30530556, 28.23947222], [129.30494444, 28.24058333], [129.30283333, 28.24094444], [129.30075, 28.24105556], [129.29705556, 28.24063889], [129.29522222, 28.23991667], [129.29458333, 28.23961111], [129.29355556, 28.24], [129.29013889, 28.24236111], [129.29013889, 28.24338889], [129.28922222, 28.24388889], [129.28869444, 28.24525], [129.28608333, 28.24808333], [129.28555556, 28.24994444], [129.28647222, 28.25197222], [129.28647222, 28.25338889], [129.28744444, 28.25375], [129.28716667, 28.25375], [129.28716667, 28.25375], [129.28763889, 28.25436111], [129.28769444, 28.25638889], [129.28966667, 28.25938889], [129.28758333, 28.26172222], [129.28502778, 28.26486111], [129.28611111, 28.26705556], [129.28561111, 28.26983333], [129.28438889, 28.27091667], [129.28569444, 28.27219444], [129.28805556, 28.27316667], [129.29047222, 28.27327778], [129.29269444, 28.27377778], [129.29297222, 28.27419444], [129.29438889, 28.27497222], [129.29622222, 28.27875], [129.29736111, 28.27911111], [129.29975, 28.28080556], [129.30155556, 28.28108333], [129.3045, 28.28294444], [129.30838889, 28.28405556], [129.31041667, 28.28408333], [129.31227778, 28.28402778], [129.31422222, 28.28516667], [129.31594444, 28.28766667], [129.31661111, 28.29008333], [129.31813889, 28.291], [129.31861111, 28.29344444], [129.31980556, 28.29502778], [129.32130556, 28.29638889], [129.32130556, 28.29638889], [129.32413889, 28.29611111], [129.33105556, 28.29647222], [129.33105556, 28.29647222], [129.33255556, 28.29586111], [129.33494444, 28.29591667], [129.33533333, 28.29447222], [129.33713889, 28.29441667], [129.33786111, 28.29522222], [129.33841667, 28.2945], [129.34066667, 28.2945], [129.34197222, 28.29527778], [129.34316667, 28.29494444], [129.34391667, 28.29361111], [129.34552778, 28.29275], [129.34669444, 28.29238889], [129.34744444, 28.29097222], [129.34836111, 28.29038889], [129.34911111, 28.28886111], [129.34983333, 28.28636111], [129.35202778, 28.28525], [129.35338889, 28.28377778], [129.35552778, 28.28361111], [129.35791667, 28.28438889], [129.35922222, 28.28505556], [129.36136111, 28.28452778], [129.36366667, 28.28422222], [129.36402778, 28.28272222], [129.364, 28.28177778], [129.36552778, 28.28019444], [129.36658333, 28.27897222], [129.36852778, 28.27886111], [129.36891667, 28.27741667], [129.37169444, 28.27633333], [129.37291667, 28.27586111], [129.37291667, 28.27586111], [129.37502778, 28.27411111], [129.37736111, 28.27286111], [129.37905556, 28.27072222], [129.38155556, 28.27002778], [129.38272222, 28.2685], [129.38272222, 28.26691667], [129.38469444, 28.2665]]]}, "properties": {"source_id": "nlni_w12_watersheds_amami", "source_ref": "https://nlftp.mlit.go.jp/ksj/gmlold/data/W12/W12-52A/W12-52A-46-01.0a_GML.zip#W12-52A-2K-46_WatershedBoundary:798", "watershed_id": "89599-0012", "watershed_type_code_raw": "0", "watershed_type_ja": "流域界", "water_system_code_old": "89599", "unit_valley_code": "0012", "area_km2": 43.730803, "centroid_lat": 28.26416, "centroid_lon": 129.330755, "water_system_bureau_ja": "九州地方建設局", "water_system_category_ja": "複合水系域", "water_system_code_w05_estimated": "460000", "water_system_name_ja_estimated": null, "estimate_share": 0.5996, "estimate_matched_streams": 2, "estimate_flag": "ok", "main_river_names_ja": "河内川|小勝川", "estimate_method": "W05河川(鹿児島,平成19年)の流路を当ポリゴンで交差させ、交差延長最大の水系域コードをWaterSystemCodeCdで名称化した推定値", "data_year": 1977, "prefecture_code": "46", "prefecture_name_ja": "鹿児島県"}}, {"type": "Feature", "geometry": {"type": "Polygon", "coordinates": [[[129.31538889, 28.17044444], [129.31452778, 28.17166667], [129.31302778, 28.17308333], [129.31238889, 28.17497222], [129.31286111, 28.17627778], [129.31369444, 28.17877778], [129.31341667, 28.18308333], [129.31319444, 28.18402778], [129.31269444, 28.18463889], [129.31, 28.18533333], [129.30697222, 28.18505556], [129.30486111, 28.18633333], [129.30502778, 28.18830556], [129.305, 28.19033333], [129.30608333, 28.19297222], [129.30633333, 28.19530556], [129.30569444, 28.19780556], [129.30519444, 28.20019444], [129.30561111, 28.20205556], [129.30552778, 28.20313889], [129.30575, 28.20372222], [129.30816667, 28.20569444], [129.30966667, 28.20758333], [129.30966667, 28.20758333], [129.31313889, 28.20672222], [129.3145, 28.20541667], [129.31686111, 28.20469444], [129.31925, 28.20480556], [129.32113889, 28.20419444], [129.3225, 28.20516667], [129.32427778, 28.20572222], [129.32663889, 28.20519444], [129.32975, 28.2035], [129.32941667, 28.20119444], [129.32994444, 28.20005556], [129.32994444, 28.20005556], [129.32913889, 28.19852778], [129.32880556, 28.1975], [129.32986111, 28.19558333], [129.33133333, 28.19366667], [129.33141667, 28.1925], [129.33225, 28.19116667], [129.3325, 28.18841667], [129.33394444, 28.18647222], [129.33411111, 28.18483333], [129.33525, 28.18480556], [129.33655556, 28.18488889], [129.33680556, 28.18444444], [129.33672222, 28.18213889], [129.3345, 28.17958333], [129.33611111, 28.17747222], [129.33897222, 28.17641667], [129.34144444, 28.17480556], [129.34002778, 28.17258333], [129.33891667, 28.17144444], [129.33961111, 28.17044444], [129.33938889, 28.17044444], [129.33938889, 28.17044444], [129.33772222, 28.16894444], [129.33727778, 28.1675], [129.33641667, 28.16716667], [129.33508333, 28.16452778], [129.33463889, 28.16322222], [129.33527778, 28.16147222], [129.33486111, 28.15827778], [129.33261111, 28.15677778], [129.33177778, 28.15547222], [129.33183333, 28.15333333], [129.32994444, 28.15255556], [129.32808333, 28.15297222], [129.32502778, 28.15502778], [129.32316667, 28.15638889], [129.32119444, 28.15819444], [129.31916667, 28.16019444], [129.31883333, 28.16336111], [129.31827778, 28.16477778], [129.31841667, 28.16675], [129.31736111, 28.1675], [129.31583333, 28.16947222], [129.31555556, 28.17044444], [129.31538889, 28.17044444]]]}, "properties": {"source_id": "nlni_w12_watersheds_amami", "source_ref": "https://nlftp.mlit.go.jp/ksj/gmlold/data/W12/W12-52A/W12-52A-46-01.0a_GML.zip#W12-52A-2K-46_WatershedBoundary:799", "watershed_id": "89599-0013", "watershed_type_code_raw": "0", "watershed_type_ja": "流域界", "water_system_code_old": "89599", "unit_valley_code": "0013", "area_km2": 12.276986, "centroid_lat": 28.182192, "centroid_lon": 129.322609, "water_system_bureau_ja": "九州地方建設局", "water_system_category_ja": "複合水系域", "water_system_code_w05_estimated": "460133", "water_system_name_ja_estimated": "阿木名川", "estimate_share": 0.8798, "estimate_matched_streams": 2, "estimate_flag": "ok", "main_river_names_ja": "阿木名川|古仁屋又川", "estimate_method": "W05河川(鹿児島,平成19年)の流路を当ポリゴンで交差させ、交差延長最大の水系域コードをWaterSystemCodeCdで名称化した推定値", "data_year": 1977, "prefecture_code": "46", "prefecture_name_ja": "鹿児島県"}}, {"type": "Feature", "geometry": {"type": "Polygon", "coordinates": [[[129.37291667, 28.20452778], [129.37627778, 28.20483333], [129.37691667, 28.20686111], [129.37816667, 28.20855556], [129.37936111, 28.2105], [129.38111111, 28.21319444], [129.38261111, 28.21330556], [129.38391667, 28.21375], [129.3855, 28.21266667], [129.38655556, 28.21247222], [129.38833333, 28.21247222], [129.39005556, 28.21241667], [129.39055556, 28.21344444], [129.39311111, 28.21461111], [129.39472222, 28.21611111], [129.39658333, 28.21616667], [129.39827778, 28.21683333], [129.39930556, 28.21763889], [129.40055556, 28.21747222], [129.40241667, 28.21819444], [129.40241667, 28.21819444], [129.40358333, 28.21711111], [129.40347222, 28.21597222], [129.40402778, 28.21488889], [129.40513889, 28.21255556], [129.40486111, 28.21113889], [129.40502778, 28.20966667], [129.40444444, 28.20833333], [129.404, 28.20688889], [129.40452778, 28.20483333], [129.40383333, 28.20325], [129.40344444, 28.20069444], [129.40202778, 28.19941667], [129.40213889, 28.19613889], [129.40211111, 28.19391667], [129.40183333, 28.19183333], [129.40255556, 28.19044444], [129.40255556, 28.18972222], [129.40152778, 28.18933333], [129.40113889, 28.18775], [129.3995, 28.18594444], [129.39855556, 28.18366667], [129.39761111, 28.18169444], [129.39375, 28.18127778], [129.39127778, 28.18094444], [129.38947222, 28.18072222], [129.38891667, 28.18186111], [129.38802778, 28.18308333], [129.38563889, 28.18288889], [129.38191667, 28.18244444], [129.37916667, 28.18261111], [129.37669444, 28.18263889], [129.37458333, 28.18458333], [129.37291667, 28.18580556], [129.37291667, 28.18586111], [129.37291667, 28.18586111], [129.37058333, 28.18605556], [129.368, 28.18566667], [129.36697222, 28.18597222], [129.36511111, 28.18597222], [129.36355556, 28.18658333], [129.36358333, 28.18844444], [129.36327778, 28.1905], [129.36222222, 28.19222222], [129.36222222, 28.19222222], [129.36297222, 28.19372222], [129.36441667, 28.19480556], [129.36555556, 28.1955], [129.36597222, 28.19625], [129.36597222, 28.197], [129.36625, 28.20227778], [129.36727778, 28.20225], [129.36788889, 28.20277778], [129.36997222, 28.20336111], [129.37291667, 28.20455556], [129.37291667, 28.20452778]]]}, "properties": {"source_id": "nlni_w12_watersheds_amami", "source_ref": "https://nlftp.mlit.go.jp/ksj/gmlold/data/W12/W12-52A/W12-52A-46-01.0a_GML.zip#W12-52A-2K-46_WatershedBoundary:800", "watershed_id": "89599-0014", "watershed_type_code_raw": "0", "watershed_type_ja": "流域界", "water_system_code_old": "89599", "unit_valley_code": "0014", "area_km2": 11.400313, "centroid_lat": 28.197837, "centroid_lon": 129.38628, "water_system_bureau_ja": "九州地方建設局", "water_system_category_ja": "複合水系域", "water_system_code_w05_estimated": "460366", "water_system_name_ja_estimated": "嘉徳川", "estimate_share": 0.7115, "estimate_matched_streams": 2, "estimate_flag": "ok", "main_river_names_ja": "嘉徳川", "estimate_method": "W05河川(鹿児島,平成19年)の流路を当ポリゴンで交差させ、交差延長最大の水系域コードをWaterSystemCodeCdで名称化した推定値", "data_year": 1977, "prefecture_code": "46", "prefecture_name_ja": "鹿児島県"}}, {"type": "Feature", "geometry": {"type": "Polygon", "coordinates": [[[129.31047222, 28.23325], [129.31188889, 28.23336111], [129.31447222, 28.23388889], [129.31558333, 28.23594444], [129.3185, 28.23741667], [129.31861111, 28.23852778], [129.32019444, 28.23891667], [129.32147222, 28.23730556], [129.32322222, 28.23733333], [129.32480556, 28.23666667], [129.32491667, 28.23541667], [129.32566667, 28.234], [129.32752778, 28.23363889], [129.32827778, 28.23511111], [129.33094444, 28.23597222], [129.33369444, 28.23733333], [129.33491667, 28.23733333], [129.33661111, 28.23997222], [129.34141667, 28.23941667], [129.34319444, 28.23986111], [129.34380556, 28.23875], [129.34644444, 28.24086111], [129.34697222, 28.24283333], [129.34736111, 28.24322222], [129.34783333, 28.24322222], [129.34852778, 28.24472222], [129.34816667, 28.24597222], [129.34863889, 28.24666667], [129.34961111, 28.24619444], [129.35216667, 28.24580556], [129.35394444, 28.24691667], [129.35619444, 28.24602778], [129.35827778, 28.24527778], [129.35933333, 28.24525], [129.35955556, 28.24663889], [129.36072222, 28.24683333], [129.36191667, 28.25025], [129.36258333, 28.25016667], [129.36355556, 28.24961111], [129.36452778, 28.24938889], [129.36594444, 28.24963889], [129.36816667, 28.24933333], [129.36825, 28.25058333], [129.36872222, 28.25169444], [129.36916667, 28.25308333], [129.36991667, 28.25377778], [129.37, 28.25377778], [129.37, 28.25377778], [129.37041667, 28.256], [129.37291667, 28.25591667], [129.37291667, 28.25625], [129.37291667, 28.25625], [129.37594444, 28.25641667], [129.37836111, 28.25602778], [129.37947222, 28.25702778], [129.38052778, 28.25763889], [129.38094444, 28.25891667], [129.38436111, 28.26177778], [129.38455556, 28.26344444], [129.38552778, 28.26408333], [129.38566667, 28.26544444], [129.38469444, 28.2665], [129.38469444, 28.2665], [129.38716667, 28.26691667], [129.39016667, 28.26722222], [129.39202778, 28.267], [129.39258333, 28.26425], [129.39513889, 28.26413889], [129.39683333, 28.263], [129.39716667, 28.26072222], [129.40002778, 28.26044444], [129.40275, 28.26027778], [129.40427778, 28.25875], [129.40947222, 28.257], [129.40930556, 28.25608333], [129.40930556, 28.25608333], [129.40891667, 28.25522222], [129.40861111, 28.25530556], [129.40927778, 28.25419444], [129.40983333, 28.25394444], [129.40905556, 28.25377778], [129.40897222, 28.25377778], [129.40897222, 28.25377778], [129.40716667, 28.25288889], [129.4065, 28.25175], [129.40491667, 28.24980556], [129.40458333, 28.24763889], [129.40444444, 28.2455], [129.40369444, 28.24375], [129.40347222, 28.24244444], [129.40183333, 28.24122222], [129.40161111, 28.23930556], [129.40258333, 28.23591667], [129.40122222, 28.23338889], [129.40108333, 28.23158333], [129.40175, 28.22955556], [129.40130556, 28.22722222], [129.40144444, 28.22469444], [129.40263889, 28.2225], [129.40247222, 28.21983333], [129.40241667, 28.21819444], [129.40241667, 28.21819444], [129.40055556, 28.21747222], [129.39930556, 28.21763889], [129.39827778, 28.21683333], [129.39658333, 28.21616667], [129.39472222, 28.21611111], [129.39311111, 28.21461111], [129.39055556, 28.21344444], [129.39005556, 28.21241667], [129.38833333, 28.21247222], [129.38655556, 28.21247222], [129.3855, 28.21266667], [129.38391667, 28.21375], [129.38261111, 28.21330556], [129.38111111, 28.21319444], [129.37936111, 28.2105], [129.37816667, 28.20855556], [129.37691667, 28.20686111], [129.37627778, 28.20483333], [129.37291667, 28.20452778], [129.37291667, 28.20455556], [129.37291667, 28.20455556], [129.36997222, 28.20336111], [129.36788889, 28.20277778], [129.36727778, 28.20225], [129.36625, 28.20227778], [129.36597222, 28.197], [129.36597222, 28.19625], [129.36555556, 28.1955], [129.36441667, 28.19480556], [129.36297222, 28.19372222], [129.36222222, 28.19222222], [129.36222222, 28.19222222], [129.35922222, 28.19480556], [129.35752778, 28.19727778], [129.35558333, 28.19855556], [129.35175, 28.19844444], [129.34861111, 28.19930556], [129.34486111, 28.19872222], [129.34188889, 28.198], [129.34025, 28.19794444], [129.33652778, 28.19958333], [129.33555556, 28.20055556], [129.33372222, 28.20063889], [129.33175, 28.19986111], [129.32994444, 28.20005556], [129.32994444, 28.20005556], [129.32941667, 28.20119444], [129.32975, 28.2035], [129.32663889, 28.20519444], [129.32427778, 28.20572222], [129.3225, 28.20516667], [129.32113889, 28.20419444], [129.31925, 28.20480556], [129.31686111, 28.20469444], [129.3145, 28.20541667], [129.31313889, 28.20672222], [129.30966667, 28.20758333], [129.30966667, 28.20758333], [129.30838889, 28.21105556], [129.30527778, 28.21230556], [129.30447222, 28.21413889], [129.30372222, 28.21633333], [129.30475, 28.21727778], [129.30511111, 28.21941667], [129.30658333, 28.22069444], [129.308, 28.22280556], [129.30922222, 28.22463889], [129.30938889, 28.22677778], [129.30913889, 28.22866667], [129.30958333, 28.23041667], [129.31033333, 28.23163889], [129.31047222, 28.23325]]]}, "properties": {"source_id": "nlni_w12_watersheds_amami", "source_ref": "https://nlftp.mlit.go.jp/ksj/gmlold/data/W12/W12-52A/W12-52A-46-01.0a_GML.zip#W12-52A-2K-46_WatershedBoundary:801", "watershed_id": "89599-0015", "watershed_type_code_raw": "0", "watershed_type_ja": "流域界", "water_system_code_old": "89599", "unit_valley_code": "0015", "area_km2": 44.948767, "centroid_lat": 28.227389, "centroid_lon": 129.360054, "water_system_bureau_ja": "九州地方建設局", "water_system_category_ja": "複合水系域", "water_system_code_w05_estimated": "460130", "water_system_name_ja_estimated": "役勝川", "estimate_share": 0.5958, "estimate_matched_streams": 2, "estimate_flag": "ok", "main_river_names_ja": "役勝川|興福地川", "estimate_method": "W05河川(鹿児島,平成19年)の流路を当ポリゴンで交差させ、交差延長最大の水系域コードをWaterSystemCodeCdで名称化した推定値", "data_year": 1977, "prefecture_code": "46", "prefecture_name_ja": "鹿児島県"}}, {"type": "Feature", "geometry": {"type": "Polygon", "coordinates": [[[129.41280556, 28.25377778], [129.41230556, 28.25325], [129.41172222, 28.25377778], [129.41172222, 28.25377778], [129.41097222, 28.25466667], [129.40927778, 28.25488889], [129.40930556, 28.25608333], [129.40930556, 28.25608333], [129.40947222, 28.257], [129.40427778, 28.25875], [129.40275, 28.26027778], [129.40002778, 28.26044444], [129.39716667, 28.26072222], [129.39683333, 28.263], [129.39513889, 28.26413889], [129.39258333, 28.26425], [129.39202778, 28.267], [129.39016667, 28.26722222], [129.38716667, 28.26691667], [129.38469444, 28.2665], [129.38469444, 28.2665], [129.38272222, 28.26691667], [129.38272222, 28.2685], [129.38155556, 28.27002778], [129.37905556, 28.27072222], [129.37736111, 28.27286111], [129.37502778, 28.27411111], [129.37291667, 28.27586111], [129.37291667, 28.27586111], [129.37169444, 28.27633333], [129.36891667, 28.27741667], [129.36852778, 28.27886111], [129.36658333, 28.27897222], [129.36552778, 28.28019444], [129.364, 28.28177778], [129.36402778, 28.28272222], [129.36366667, 28.28422222], [129.36136111, 28.28452778], [129.35922222, 28.28505556], [129.35791667, 28.28438889], [129.35552778, 28.28361111], [129.35338889, 28.28377778], [129.35202778, 28.28525], [129.34983333, 28.28636111], [129.34911111, 28.28886111], [129.34836111, 28.29038889], [129.34744444, 28.29097222], [129.34669444, 28.29238889], [129.34552778, 28.29275], [129.34391667, 28.29361111], [129.34316667, 28.29494444], [129.34197222, 28.29527778], [129.34066667, 28.2945], [129.33841667, 28.2945], [129.33786111, 28.29522222], [129.33713889, 28.29441667], [129.33533333, 28.29447222], [129.33494444, 28.29591667], [129.33255556, 28.29586111], [129.33105556, 28.29647222], [129.33105556, 28.29647222], [129.33136111, 28.29808333], [129.33186111, 28.30072222], [129.33272222, 28.30272222], [129.33458333, 28.30497222], [129.33622222, 28.30625], [129.3365, 28.30772222], [129.33777778, 28.30841667], [129.33733333, 28.31058333], [129.33691667, 28.31263889], [129.33544444, 28.31475], [129.33416667, 28.31669444], [129.33591667, 28.31811111], [129.33633333, 28.31988889], [129.33591667, 28.32133333], [129.33427778, 28.32255556], [129.33316667, 28.32383333], [129.33277778, 28.32522222], [129.33205556, 28.32686111], [129.33136111, 28.32852778], [129.33244444, 28.33036111], [129.33352778, 28.33183333], [129.33386111, 28.33533333], [129.33386111, 28.33533333], [129.33572222, 28.33708333], [129.33563889, 28.33708333], [129.33563889, 28.33708333], [129.33877778, 28.33872222], [129.34097222, 28.34136111], [129.34236111, 28.34186111], [129.34438889, 28.34091667], [129.34538889, 28.33980556], [129.346, 28.33811111], [129.34836111, 28.33786111], [129.35022222, 28.33886111], [129.35252778, 28.33875], [129.35322222, 28.33794444], [129.35447222, 28.33758333], [129.35622222, 28.33830556], [129.35838889, 28.33708333], [129.35833333, 28.33708333], [129.35833333, 28.33708333], [129.35933333, 28.336], [129.36113889, 28.33597222], [129.36266667, 28.33686111], [129.36266667, 28.33686111], [129.36408333, 28.33577778], [129.36455556, 28.33361111], [129.36630556, 28.33255556], [129.36775, 28.33205556], [129.36916667, 28.33133333], [129.37011111, 28.32875], [129.37166667, 28.32936111], [129.37291667, 28.32877778], [129.37291667, 28.32883333], [129.37291667, 28.32883333], [129.37533333, 28.32875], [129.37736111, 28.32638889], [129.37886111, 28.32419444], [129.38063889, 28.32388889], [129.38244444, 28.32252778], [129.38244444, 28.32252778], [129.38394444, 28.32155556], [129.38525, 28.31983333], [129.38708333, 28.31836111], [129.3885, 28.31697222], [129.38952778, 28.31505556], [129.3915, 28.31325], [129.39366667, 28.31258333], [129.39391667, 28.31111111], [129.39566667, 28.31052778], [129.39644444, 28.30991667], [129.3985, 28.30894444], [129.39913889, 28.30722222], [129.40461111, 28.30516667], [129.40525, 28.30275], [129.40705556, 28.29927778], [129.40761111, 28.29655556], [129.40816667, 28.29394444], [129.40966667, 28.29441667], [129.41113889, 28.29455556], [129.41269444, 28.29411111], [129.41322222, 28.29138889], [129.416, 28.29041667], [129.41919444, 28.28869444], [129.41919444, 28.28588889], [129.42188889, 28.285], [129.42191667, 28.284], [129.42522222, 28.28055556], [129.42588889, 28.27908333], [129.42788889, 28.27763889], [129.42788889, 28.27763889], [129.42877778, 28.27475], [129.42966667, 28.27308333], [129.429, 28.27236111], [129.43088889, 28.27047222], [129.43327778, 28.26825], [129.43588889, 28.26666667], [129.43738889, 28.26508333], [129.43611111, 28.26219444], [129.43425, 28.26063889], [129.43288889, 28.26030556], [129.43169444, 28.25841667], [129.42861111, 28.25844444], [129.42552778, 28.25858333], [129.42313889, 28.25933333], [129.41969444, 28.25963889], [129.41875, 28.25883333], [129.41738889, 28.25844444], [129.41558333, 28.25597222], [129.41388889, 28.25463889], [129.41363889, 28.25488889], [129.41333333, 28.25477778], [129.41266667, 28.25377778], [129.41280556, 28.25377778]]]}, "properties": {"source_id": "nlni_w12_watersheds_amami", "source_ref": "https://nlftp.mlit.go.jp/ksj/gmlold/data/W12/W12-52A/W12-52A-46-01.0a_GML.zip#W12-52A-2K-46_WatershedBoundary:802", "watershed_id": "89599-0016", "watershed_type_code_raw": "0", "watershed_type_ja": "流域界", "water_system_code_old": "89599", "unit_valley_code": "0016", "area_km2": 47.436067, "centroid_lat": 28.297002, "centroid_lon": 129.378551, "water_system_bureau_ja": "九州地方建設局", "water_system_category_ja": "複合水系域", "water_system_code_w05_estimated": "460000", "water_system_name_ja_estimated": null, "estimate_share": 0.6128, "estimate_matched_streams": 2, "estimate_flag": "ok", "main_river_names_ja": "住用川", "estimate_method": "W05河川(鹿児島,平成19年)の流路を当ポリゴンで交差させ、交差延長最大の水系域コードをWaterSystemCodeCdで名称化した推定値", "data_year": 1977, "prefecture_code": "46", "prefecture_name_ja": "鹿児島県"}}, {"type": "Feature", "geometry": {"type": "Polygon", "coordinates": [[[129.39552778, 28.33708333], [129.39625, 28.33808333], [129.39680556, 28.33888889], [129.39730556, 28.33927778], [129.39852778, 28.33902778], [129.39958333, 28.33852778], [129.40022222, 28.33797222], [129.40066667, 28.338], [129.40055556, 28.33927778], [129.40058333, 28.34], [129.40094444, 28.34080556], [129.40138889, 28.34155556], [129.40138889, 28.34155556], [129.40286111, 28.34175], [129.40413889, 28.34183333], [129.40522222, 28.34213889], [129.40638889, 28.34219444], [129.40755556, 28.34211111], [129.40780556, 28.34241667], [129.40844444, 28.34302778], [129.40944444, 28.34369444], [129.41094444, 28.34422222], [129.41255556, 28.3445], [129.41355556, 28.34463889], [129.41397222, 28.34519444], [129.41438889, 28.346], [129.41530556, 28.34644444], [129.41597222, 28.347], [129.41691667, 28.34758333], [129.41766667, 28.34719444], [129.41866667, 28.34638889], [129.41975, 28.34544444], [129.42058333, 28.34536111], [129.42163889, 28.34516667], [129.4235, 28.34480556], [129.42433333, 28.34461111], [129.42530556, 28.34480556], [129.42575, 28.34558333], [129.42630556, 28.34569444], [129.42630556, 28.34569444], [129.42827778, 28.34405556], [129.42952778, 28.34194444], [129.43194444, 28.34183333], [129.43441667, 28.34108333], [129.43747222, 28.34158333], [129.43975, 28.34147222], [129.44325, 28.33980556], [129.44488889, 28.338], [129.44488889, 28.338], [129.44583333, 28.33763889], [129.44577778, 28.33708333], [129.44577778, 28.33708333], [129.44575, 28.33552778], [129.44652778, 28.33363889], [129.44652778, 28.33363889], [129.44563889, 28.33294444], [129.44505556, 28.33177778], [129.44380556, 28.32861111], [129.44247222, 28.32780556], [129.44183333, 28.32697222], [129.43977778, 28.32519444], [129.43802778, 28.32341667], [129.43841667, 28.32205556], [129.43705556, 28.32005556], [129.43688889, 28.31822222], [129.43913889, 28.31747222], [129.44044444, 28.31666667], [129.44197222, 28.31627778], [129.44325, 28.31425], [129.44494444, 28.31325], [129.44691667, 28.31130556], [129.44713889, 28.30958333], [129.44730556, 28.30755556], [129.44625, 28.30413889], [129.44691667, 28.30141667], [129.44691667, 28.30141667], [129.44663889, 28.29880556], [129.44508333, 28.29647222], [129.443, 28.29580556], [129.44225, 28.29444444], [129.44238889, 28.29338889], [129.44361111, 28.293], [129.44355556, 28.29097222], [129.44494444, 28.29072222], [129.44352778, 28.28986111], [129.44075, 28.28958333], [129.43833333, 28.28761111], [129.43469444, 28.28586111], [129.43336111, 28.28402778], [129.43013889, 28.28213889], [129.42825, 28.28002778], [129.42788889, 28.27763889], [129.42788889, 28.27763889], [129.42588889, 28.27908333], [129.42522222, 28.28055556], [129.42191667, 28.284], [129.42188889, 28.285], [129.41919444, 28.28588889], [129.41919444, 28.28869444], [129.416, 28.29041667], [129.41322222, 28.29138889], [129.41269444, 28.29411111], [129.41113889, 28.29455556], [129.40966667, 28.29441667], [129.40816667, 28.29394444], [129.40761111, 28.29655556], [129.40705556, 28.29927778], [129.40525, 28.30275], [129.40461111, 28.30516667], [129.39913889, 28.30722222], [129.3985, 28.30894444], [129.39644444, 28.30991667], [129.39566667, 28.31052778], [129.39391667, 28.31111111], [129.39366667, 28.31258333], [129.3915, 28.31325], [129.38952778, 28.31505556], [129.3885, 28.31697222], [129.38708333, 28.31836111], [129.38525, 28.31983333], [129.38394444, 28.32155556], [129.38244444, 28.32252778], [129.38244444, 28.32252778], [129.38308333, 28.32366667], [129.38563889, 28.32466667], [129.38913889, 28.32558333], [129.39183333, 28.32597222], [129.39263889, 28.32722222], [129.39405556, 28.32888889], [129.39447222, 28.33063889], [129.39613889, 28.33272222], [129.39513889, 28.33475], [129.39561111, 28.33708333], [129.39552778, 28.33708333]]]}, "properties": {"source_id": "nlni_w12_watersheds_amami", "source_ref": "https://nlftp.mlit.go.jp/ksj/gmlold/data/W12/W12-52A/W12-52A-46-01.0a_GML.zip#W12-52A-2K-46_WatershedBoundary:803", "watershed_id": "89599-0017", "watershed_type_code_raw": "0", "watershed_type_ja": "流域界", "water_system_code_old": "89599", "unit_valley_code": "0017", "area_km2": 28.164137, "centroid_lat": 28.316474, "centroid_lon": 129.420337, "water_system_bureau_ja": "九州地方建設局", "water_system_category_ja": "複合水系域", "water_system_code_w05_estimated": "460000", "water_system_name_ja_estimated": null, "estimate_share": 0.5415, "estimate_matched_streams": 2, "estimate_flag": "ok", "main_river_names_ja": "川内川", "estimate_method": "W05河川(鹿児島,平成19年)の流路を当ポリゴンで交差させ、交差延長最大の水系域コードをWaterSystemCodeCdで名称化した推定値", "data_year": 1977, "prefecture_code": "46", "prefecture_name_ja": "鹿児島県"}}, {"type": "Feature", "geometry": {"type": "Polygon", "coordinates": [[[129.44691667, 28.30141667], [129.44625, 28.30413889], [129.44730556, 28.30755556], [129.44713889, 28.30958333], [129.44691667, 28.31130556], [129.44494444, 28.31325], [129.44325, 28.31425], [129.44197222, 28.31627778], [129.44044444, 28.31666667], [129.43913889, 28.31747222], [129.43688889, 28.31822222], [129.43705556, 28.32005556], [129.43841667, 28.32205556], [129.43802778, 28.32341667], [129.43977778, 28.32519444], [129.44183333, 28.32697222], [129.44247222, 28.32780556], [129.44380556, 28.32861111], [129.44505556, 28.33177778], [129.44563889, 28.33294444], [129.44652778, 28.33363889], [129.44652778, 28.33363889], [129.451, 28.33219444], [129.45227778, 28.33197222], [129.4555, 28.32988889], [129.45872222, 28.33077778], [129.46133333, 28.33019444], [129.46161111, 28.32911111], [129.46338889, 28.32727778], [129.46458333, 28.32727778], [129.46563889, 28.32605556], [129.46680556, 28.3245], [129.46691667, 28.32258333], [129.46833333, 28.32119444], [129.46908333, 28.31986111], [129.46941667, 28.31811111], [129.47086111, 28.31580556], [129.47197222, 28.31294444], [129.47213889, 28.3095], [129.47213889, 28.3095], [129.47080556, 28.30833333], [129.47041667, 28.30730556], [129.46838889, 28.30672222], [129.46675, 28.30533333], [129.46416667, 28.30472222], [129.463, 28.30325], [129.45744444, 28.29894444], [129.45680556, 28.29522222], [129.45547222, 28.29361111], [129.45508333, 28.29475], [129.45508333, 28.29647222], [129.45341667, 28.29694444], [129.45041667, 28.29902778], [129.4495, 28.30083333], [129.44691667, 28.30141667]]]}, "properties": {"source_id": "nlni_w12_watersheds_amami", "source_ref": "https://nlftp.mlit.go.jp/ksj/gmlold/data/W12/W12-52A/W12-52A-46-01.0a_GML.zip#W12-52A-2K-46_WatershedBoundary:804", "watershed_id": "89599-0018", "watershed_type_code_raw": "0", "watershed_type_ja": "流域界", "water_system_code_old": "89599", "unit_valley_code": "0018", "area_km2": 8.427781, "centroid_lat": 28.315979, "centroid_lon": 129.455124, "water_system_bureau_ja": "九州地方建設局", "water_system_category_ja": "複合水系域", "water_system_code_w05_estimated": "460127", "water_system_name_ja_estimated": "金久田川", "estimate_share": 0.6092, "estimate_matched_streams": 2, "estimate_flag": "ok", "main_river_names_ja": "金久田川", "estimate_method": "W05河川(鹿児島,平成19年)の流路を当ポリゴンで交差させ、交差延長最大の水系域コードをWaterSystemCodeCdで名称化した推定値", "data_year": 1977, "prefecture_code": "46", "prefecture_name_ja": "鹿児島県"}}, {"type": "Feature", "geometry": {"type": "Polygon", "coordinates": [[[129.47213889, 28.3095], [129.47197222, 28.31294444], [129.47086111, 28.31580556], [129.46941667, 28.31811111], [129.46908333, 28.31986111], [129.46833333, 28.32119444], [129.46691667, 28.32258333], [129.46680556, 28.3245], [129.46563889, 28.32605556], [129.46458333, 28.32727778], [129.46338889, 28.32727778], [129.46161111, 28.32911111], [129.46133333, 28.33019444], [129.45872222, 28.33077778], [129.4555, 28.32988889], [129.45227778, 28.33197222], [129.451, 28.33219444], [129.44652778, 28.33363889], [129.44652778, 28.33363889], [129.44575, 28.33552778], [129.44577778, 28.33708333], [129.44577778, 28.33708333], [129.44583333, 28.33763889], [129.44488889, 28.338], [129.44488889, 28.338], [129.44636111, 28.33908333], [129.44727778, 28.34372222], [129.44802778, 28.34588889], [129.44916667, 28.34697222], [129.44836111, 28.34794444], [129.44944444, 28.349], [129.44969444, 28.35044444], [129.45238889, 28.35194444], [129.45241667, 28.35316667], [129.45305556, 28.35394444], [129.45402778, 28.35675], [129.45616667, 28.35755556], [129.45758333, 28.35852778], [129.45761111, 28.36052778], [129.45938889, 28.36019444], [129.46069444, 28.36202778], [129.46069444, 28.36202778], [129.4625, 28.36252778], [129.46577778, 28.36213889], [129.46675, 28.3625], [129.46769444, 28.36338889], [129.47013889, 28.366], [129.47255556, 28.36572222], [129.47372222, 28.36266667], [129.47569444, 28.36263889], [129.47872222, 28.36188889], [129.48169444, 28.36069444], [129.48169444, 28.36069444], [129.48136111, 28.35880556], [129.47983333, 28.35702778], [129.48066667, 28.35647222], [129.48197222, 28.35688889], [129.48408333, 28.35691667], [129.48536111, 28.35569444], [129.48530556, 28.35394444], [129.4865, 28.35216667], [129.488, 28.35063889], [129.48883333, 28.34875], [129.49161111, 28.34841667], [129.49325, 28.34897222], [129.49488889, 28.34836111], [129.49616667, 28.34983333], [129.49761111, 28.34847222], [129.49791667, 28.34672222], [129.49791667, 28.34697222], [129.49791667, 28.34697222], [129.49919444, 28.34525], [129.50091667, 28.34577778], [129.50277778, 28.34502778], [129.50566667, 28.34419444], [129.50805556, 28.34294444], [129.50927778, 28.34319444], [129.50988889, 28.34383333], [129.51013889, 28.34505556], [129.50958333, 28.34594444], [129.50969444, 28.34658333], [129.51025, 28.34705556], [129.51197222, 28.34725], [129.51338889, 28.34922222], [129.51372222, 28.35177778], [129.51386111, 28.35247222], [129.51411111, 28.35286111], [129.51633333, 28.35277778], [129.51844444, 28.35438889], [129.51844444, 28.35438889], [129.52080556, 28.35475], [129.52238889, 28.35416667], [129.52238889, 28.35416667], [129.52386111, 28.35233333], [129.52294444, 28.35161111], [129.52352778, 28.35052778], [129.52352778, 28.35052778], [129.52336111, 28.34883333], [129.52263889, 28.34772222], [129.52461111, 28.34583333], [129.52480556, 28.34508333], [129.52480556, 28.34508333], [129.52394444, 28.34436111], [129.52377778, 28.34361111], [129.52441667, 28.343], [129.52386111, 28.33902778], [129.52475, 28.33708333], [129.52477778, 28.33708333], [129.52477778, 28.33708333], [129.52519444, 28.33536111], [129.52666667, 28.33438889], [129.52830556, 28.33216667], [129.53125, 28.33108333], [129.53322222, 28.32875], [129.53244444, 28.32794444], [129.53236111, 28.32713889], [129.53277778, 28.32663889], [129.53252778, 28.32530556], [129.53088889, 28.32508333], [129.53130556, 28.32136111], [129.52925, 28.32097222], [129.52697222, 28.32011111], [129.52261111, 28.31863889], [129.52130556, 28.31733333], [129.51947222, 28.31744444], [129.51741667, 28.31627778], [129.51488889, 28.31594444], [129.50938889, 28.31722222], [129.50719444, 28.31758333], [129.50586111, 28.31655556], [129.50491667, 28.315], [129.50275, 28.31283333], [129.50080556, 28.31033333], [129.49791667, 28.30944444], [129.49791667, 28.30913889], [129.49791667, 28.30913889], [129.49652778, 28.30880556], [129.49436111, 28.30547222], [129.49294444, 28.30441667], [129.49138889, 28.30455556], [129.49016667, 28.30372222], [129.48680556, 28.30375], [129.48586111, 28.30469444], [129.48469444, 28.30516667], [129.48352778, 28.30708333], [129.47963889, 28.3075], [129.47708333, 28.30711111], [129.47480556, 28.30727778], [129.47397222, 28.30827778], [129.47280556, 28.30847222], [129.47213889, 28.3095]]]}, "properties": {"source_id": "nlni_w12_watersheds_amami", "source_ref": "https://nlftp.mlit.go.jp/ksj/gmlold/data/W12/W12-52A/W12-52A-46-01.0a_GML.zip#W12-52A-2K-46_WatershedBoundary:805", "watershed_id": "89599-0019", "watershed_type_code_raw": "0", "watershed_type_ja": "流域界", "water_system_code_old": "89599", "unit_valley_code": "0019", "area_km2": 32.699408, "centroid_lat": 28.334424, "centroid_lon": 129.487634, "water_system_bureau_ja": "九州地方建設局", "water_system_category_ja": "複合水系域", "water_system_code_w05_estimated": "460126", "water_system_name_ja_estimated": "大川", "estimate_share": 0.539, "estimate_matched_streams": 2, "estimate_flag": "ok", "main_river_names_ja": "大川|朝戸川", "estimate_method": "W05河川(鹿児島,平成19年)の流路を当ポリゴンで交差させ、交差延長最大の水系域コードをWaterSystemCodeCdで名称化した推定値", "data_year": 1977, "prefecture_code": "46", "prefecture_name_ja": "鹿児島県"}}, {"type": "Feature", "geometry": {"type": "Polygon", "coordinates": [[[129.5975, 28.38502778], [129.59688889, 28.38291667], [129.59530556, 28.37988889], [129.59430556, 28.37825], [129.59363889, 28.37652778], [129.59188889, 28.37480556], [129.59072222, 28.37341667], [129.58872222, 28.37322222], [129.58805556, 28.37172222], [129.58838889, 28.37], [129.58877778, 28.368], [129.58777778, 28.36716667], [129.58594444, 28.36625], [129.58452778, 28.36363889], [129.58405556, 28.36347222], [129.58405556, 28.36347222], [129.58397222, 28.36341667], [129.58391667, 28.36677778], [129.58219444, 28.36927778], [129.57986111, 28.37041667], [129.57775, 28.37102778], [129.57638889, 28.37219444], [129.57561111, 28.37366667], [129.57561111, 28.37366667], [129.57880556, 28.37486111], [129.58094444, 28.37425], [129.58197222, 28.37516667], [129.58258333, 28.37716667], [129.58480556, 28.37933333], [129.58480556, 28.38061111], [129.58480556, 28.38061111], [129.58597222, 28.38141667], [129.58797222, 28.3835], [129.59275, 28.38441667], [129.59444444, 28.38561111], [129.5975, 28.38502778]]]}, "properties": {"source_id": "nlni_w12_watersheds_amami", "source_ref": "https://nlftp.mlit.go.jp/ksj/gmlold/data/W12/W12-52A/W12-52A-46-01.0a_GML.zip#W12-52A-2K-46_WatershedBoundary:806", "watershed_id": "89599-0020", "watershed_type_code_raw": "0", "watershed_type_ja": "流域界", "water_system_code_old": "89599", "unit_valley_code": "0020", "area_km2": 1.961332, "centroid_lat": 28.375898, "centroid_lon": 129.587298, "water_system_bureau_ja": "九州地方建設局", "water_system_category_ja": "複合水系域", "water_system_code_w05_estimated": "460125", "water_system_name_ja_estimated": "大美川", "estimate_share": 1.0, "estimate_matched_streams": 1, "estimate_flag": "ok", "main_river_names_ja": "大美川|中勝川|戸口川", "estimate_method": "W05河川(鹿児島,平成19年)の流路を当ポリゴンで交差させ、交差延長最大の水系域コードをWaterSystemCodeCdで名称化した推定値", "data_year": 1977, "prefecture_code": "46", "prefecture_name_ja": "鹿児島県"}}, {"type": "Feature", "geometry": {"type": "Polygon", "coordinates": [[[129.57561111, 28.37366667], [129.57638889, 28.37219444], [129.57775, 28.37102778], [129.57986111, 28.37041667], [129.58219444, 28.36927778], [129.58391667, 28.36677778], [129.58397222, 28.36341667], [129.58405556, 28.36347222], [129.58405556, 28.36347222], [129.58169444, 28.36333333], [129.58008333, 28.36155556], [129.57813889, 28.35977778], [129.57641667, 28.35922222], [129.57566667, 28.35769444], [129.57472222, 28.35752778], [129.57472222, 28.35752778], [129.57394444, 28.35861111], [129.57252778, 28.35969444], [129.57277778, 28.36127778], [129.5715, 28.36208333], [129.56908333, 28.36244444], [129.56908333, 28.36244444], [129.56858333, 28.3655], [129.5675, 28.36808333], [129.5675, 28.36808333], [129.56997222, 28.36852778], [129.57063889, 28.37041667], [129.57230556, 28.37088889], [129.57377778, 28.37302778], [129.57561111, 28.37366667]]]}, "properties": {"source_id": "nlni_w12_watersheds_amami", "source_ref": "https://nlftp.mlit.go.jp/ksj/gmlold/data/W12/W12-52A/W12-52A-46-01.0a_GML.zip#W12-52A-2K-46_WatershedBoundary:807", "watershed_id": "89599-0021", "watershed_type_code_raw": "0", "watershed_type_ja": "流域界", "water_system_code_old": "89599", "unit_valley_code": "0021", "area_km2": 1.623243, "centroid_lat": 28.365788, "centroid_lon": 129.575829, "water_system_bureau_ja": "九州地方建設局", "water_system_category_ja": "複合水系域", "water_system_code_w05_estimated": "460125", "water_system_name_ja_estimated": "大美川", "estimate_share": 1.0, "estimate_matched_streams": 1, "estimate_flag": "ok", "main_river_names_ja": "戸口川|大美川|松ノ木川", "estimate_method": "W05河川(鹿児島,平成19年)の流路を当ポリゴンで交差させ、交差延長最大の水系域コードをWaterSystemCodeCdで名称化した推定値", "data_year": 1977, "prefecture_code": "46", "prefecture_name_ja": "鹿児島県"}}, {"type": "Feature", "geometry": {"type": "Polygon", "coordinates": [[[129.52352778, 28.35052778], [129.52536111, 28.35094444], [129.5275, 28.35111111], [129.53063889, 28.3525], [129.53152778, 28.35322222], [129.53322222, 28.35269444], [129.53422222, 28.35166667], [129.53527778, 28.35127778], [129.53763889, 28.35313889], [129.53977778, 28.3535], [129.54413889, 28.35263889], [129.54827778, 28.35383333], [129.55113889, 28.354], [129.55386111, 28.35366667], [129.55511111, 28.35455556], [129.55777778, 28.35330556], [129.5585, 28.35436111], [129.55941667, 28.35444444], [129.55994444, 28.35472222], [129.56086111, 28.35569444], [129.56191667, 28.35655556], [129.56397222, 28.357], [129.56616667, 28.3595], [129.56866667, 28.3605], [129.56908333, 28.36244444], [129.56908333, 28.36244444], [129.5715, 28.36208333], [129.57277778, 28.36127778], [129.57252778, 28.35969444], [129.57394444, 28.35861111], [129.57472222, 28.35752778], [129.57472222, 28.35752778], [129.57263889, 28.35441667], [129.57030556, 28.35258333], [129.56738889, 28.35058333], [129.56516667, 28.34997222], [129.5625, 28.34983333], [129.56213889, 28.34852778], [129.55841667, 28.34805556], [129.55625, 28.347], [129.55305556, 28.34663889], [129.55119444, 28.34544444], [129.54894444, 28.346], [129.54555556, 28.34427778], [129.54391667, 28.34347222], [129.54133333, 28.34469444], [129.53925, 28.34444444], [129.53769444, 28.3435], [129.53591667, 28.34358333], [129.53444444, 28.34419444], [129.53258333, 28.344], [129.53013889, 28.34313889], [129.52844444, 28.34427778], [129.526, 28.34458333], [129.52480556, 28.34508333], [129.52480556, 28.34508333], [129.52461111, 28.34583333], [129.52263889, 28.34772222], [129.52336111, 28.34883333], [129.52352778, 28.35052778]]]}, "properties": {"source_id": "nlni_w12_watersheds_amami", "source_ref": "https://nlftp.mlit.go.jp/ksj/gmlold/data/W12/W12-52A/W12-52A-46-01.0a_GML.zip#W12-52A-2K-46_WatershedBoundary:808", "watershed_id": "89599-0022", "watershed_type_code_raw": "0", "watershed_type_ja": "流域界", "water_system_code_old": "89599", "unit_valley_code": "0022", "area_km2": 4.345761, "centroid_lat": 28.350699, "centroid_lon": 129.548737, "water_system_bureau_ja": "九州地方建設局", "water_system_category_ja": "複合水系域", "water_system_code_w05_estimated": "460125", "water_system_name_ja_estimated": "大美川", "estimate_share": 1.0, "estimate_matched_streams": 1, "estimate_flag": "ok", "main_river_names_ja": "松ノ木川|戸口川", "estimate_method": "W05河川(鹿児島,平成19年)の流路を当ポリゴンで交差させ、交差延長最大の水系域コードをWaterSystemCodeCdで名称化した推定値", "data_year": 1977, "prefecture_code": "46", "prefecture_name_ja": "鹿児島県"}}, {"type": "Feature", "geometry": {"type": "Polygon", "coordinates": [[[129.5675, 28.36808333], [129.56858333, 28.3655], [129.56908333, 28.36244444], [129.56908333, 28.36244444], [129.56866667, 28.3605], [129.56616667, 28.3595], [129.56397222, 28.357], [129.56191667, 28.35655556], [129.56086111, 28.35569444], [129.55994444, 28.35472222], [129.55941667, 28.35444444], [129.5585, 28.35436111], [129.55777778, 28.35330556], [129.55511111, 28.35455556], [129.55386111, 28.35366667], [129.55113889, 28.354], [129.54827778, 28.35383333], [129.54413889, 28.35263889], [129.53977778, 28.3535], [129.53763889, 28.35313889], [129.53527778, 28.35127778], [129.53422222, 28.35166667], [129.53322222, 28.35269444], [129.53152778, 28.35322222], [129.53063889, 28.3525], [129.5275, 28.35111111], [129.52536111, 28.35094444], [129.52352778, 28.35052778], [129.52352778, 28.35052778], [129.52294444, 28.35161111], [129.52386111, 28.35233333], [129.52238889, 28.35416667], [129.52238889, 28.35416667], [129.52413889, 28.35569444], [129.52452778, 28.35947222], [129.52575, 28.36063889], [129.52647222, 28.36138889], [129.52733333, 28.36136111], [129.52733333, 28.36136111], [129.52855556, 28.36066667], [129.53061111, 28.36116667], [129.53177778, 28.36061111], [129.53266667, 28.36066667], [129.53419444, 28.35991667], [129.53577778, 28.36025], [129.53861111, 28.36013889], [129.54147222, 28.35961111], [129.54405556, 28.35925], [129.5455, 28.3595], [129.54758333, 28.35922222], [129.54811111, 28.35986111], [129.55055556, 28.35922222], [129.55283333, 28.35947222], [129.55352778, 28.36102778], [129.55477778, 28.36133333], [129.55566667, 28.36208333], [129.55819444, 28.36230556], [129.55961111, 28.36361111], [129.56172222, 28.36477778], [129.56383333, 28.36586111], [129.5675, 28.36808333]]]}, "properties": {"source_id": "nlni_w12_watersheds_amami", "source_ref": "https://nlftp.mlit.go.jp/ksj/gmlold/data/W12/W12-52A/W12-52A-46-01.0a_GML.zip#W12-52A-2K-46_WatershedBoundary:809", "watershed_id": "89599-0023", "watershed_type_code_raw": "0", "watershed_type_ja": "流域界", "water_system_code_old": "89599", "unit_valley_code": "0023", "area_km2": 3.729008, "centroid_lat": 28.357715, "centroid_lon": 129.545753, "water_system_bureau_ja": "九州地方建設局", "water_system_category_ja": "複合水系域", "water_system_code_w05_estimated": "460125", "water_system_name_ja_estimated": "大美川", "estimate_share": 1.0, "estimate_matched_streams": 1, "estimate_flag": "ok", "main_river_names_ja": "戸口川", "estimate_method": "W05河川(鹿児島,平成19年)の流路を当ポリゴンで交差させ、交差延長最大の水系域コードをWaterSystemCodeCdで名称化した推定値", "data_year": 1977, "prefecture_code": "46", "prefecture_name_ja": "鹿児島県"}}, {"type": "Feature", "geometry": {"type": "Polygon", "coordinates": [[[129.52733333, 28.36136111], [129.52716667, 28.36344444], [129.52813889, 28.36372222], [129.52844444, 28.36419444], [129.5295, 28.36455556], [129.52925, 28.36597222], [129.52958333, 28.36652778], [129.52958333, 28.36652778], [129.53102778, 28.36697222], [129.53225, 28.36644444], [129.53347222, 28.36641667], [129.53505556, 28.36577778], [129.53619444, 28.36597222], [129.53736111, 28.36658333], [129.53775, 28.36816667], [129.53888889, 28.36841667], [129.53983333, 28.36958333], [129.54111111, 28.36947222], [129.54138889, 28.37030556], [129.54108333, 28.37113889], [129.54122222, 28.37180556], [129.54102778, 28.37372222], [129.54136111, 28.37591667], [129.54275, 28.37802778], [129.54441667, 28.37830556], [129.54547222, 28.37927778], [129.54788889, 28.37980556], [129.54919444, 28.38047222], [129.55027778, 28.3815], [129.5515, 28.38177778], [129.55236111, 28.38302778], [129.55236111, 28.38302778], [129.55416667, 28.38316667], [129.556, 28.38361111], [129.55736111, 28.38252778], [129.55927778, 28.38166667], [129.56152778, 28.38188889], [129.56702778, 28.38575], [129.56955556, 28.38616667], [129.57208333, 28.38838889], [129.57372222, 28.388], [129.57536111, 28.38833333], [129.57694444, 28.38772222], [129.57788889, 28.38552778], [129.57955556, 28.384], [129.58225, 28.38336111], [129.58480556, 28.38061111], [129.58480556, 28.38061111], [129.58480556, 28.37933333], [129.58258333, 28.37716667], [129.58197222, 28.37516667], [129.58094444, 28.37425], [129.57880556, 28.37486111], [129.57561111, 28.37366667], [129.57561111, 28.37366667], [129.57377778, 28.37302778], [129.57230556, 28.37088889], [129.57063889, 28.37041667], [129.56997222, 28.36852778], [129.5675, 28.36808333], [129.5675, 28.36808333], [129.56383333, 28.36586111], [129.56172222, 28.36477778], [129.55961111, 28.36361111], [129.55819444, 28.36230556], [129.55566667, 28.36208333], [129.55477778, 28.36133333], [129.55352778, 28.36102778], [129.55283333, 28.35947222], [129.55055556, 28.35922222], [129.54811111, 28.35986111], [129.54758333, 28.35922222], [129.5455, 28.3595], [129.54405556, 28.35925], [129.54147222, 28.35961111], [129.53861111, 28.36013889], [129.53577778, 28.36025], [129.53419444, 28.35991667], [129.53266667, 28.36066667], [129.53177778, 28.36061111], [129.53061111, 28.36116667], [129.52855556, 28.36066667], [129.52733333, 28.36136111]]]}, "properties": {"source_id": "nlni_w12_watersheds_amami", "source_ref": "https://nlftp.mlit.go.jp/ksj/gmlold/data/W12/W12-52A/W12-52A-46-01.0a_GML.zip#W12-52A-2K-46_WatershedBoundary:810", "watershed_id": "89599-0024", "watershed_type_code_raw": "0", "watershed_type_ja": "流域界", "water_system_code_old": "89599", "unit_valley_code": "0024", "area_km2": 8.918548, "centroid_lat": 28.372883, "centroid_lon": 129.557441, "water_system_bureau_ja": "九州地方建設局", "water_system_category_ja": "複合水系域", "water_system_code_w05_estimated": "460125", "water_system_name_ja_estimated": "大美川", "estimate_share": 0.7842, "estimate_matched_streams": 2, "estimate_flag": "ok", "main_river_names_ja": "中勝川", "estimate_method": "W05河川(鹿児島,平成19年)の流路を当ポリゴンで交差させ、交差延長最大の水系域コードをWaterSystemCodeCdで名称化した推定値", "data_year": 1977, "prefecture_code": "46", "prefecture_name_ja": "鹿児島県"}}, {"type": "Feature", "geometry": {"type": "Polygon", "coordinates": [[[129.5975, 28.38502778], [129.59444444, 28.38561111], [129.59275, 28.38441667], [129.58797222, 28.3835], [129.58597222, 28.38141667], [129.58480556, 28.38061111], [129.58480556, 28.38061111], [129.58225, 28.38336111], [129.57955556, 28.384], [129.57788889, 28.38552778], [129.57694444, 28.38772222], [129.57536111, 28.38833333], [129.57372222, 28.388], [129.57208333, 28.38838889], [129.56955556, 28.38616667], [129.56702778, 28.38575], [129.56152778, 28.38188889], [129.55927778, 28.38166667], [129.55736111, 28.38252778], [129.556, 28.38361111], [129.55416667, 28.38316667], [129.55236111, 28.38302778], [129.55236111, 28.38302778], [129.55261111, 28.38472222], [129.55252778, 28.38794444], [129.55116667, 28.38919444], [129.55136111, 28.39108333], [129.55252778, 28.39277778], [129.55358333, 28.39452778], [129.55358333, 28.39452778], [129.55483333, 28.39494444], [129.55622222, 28.39663889], [129.55827778, 28.39655556], [129.56111111, 28.39627778], [129.56325, 28.39738889], [129.56472222, 28.39811111], [129.56611111, 28.39877778], [129.56744444, 28.40044444], [129.569, 28.40263889], [129.57058333, 28.40461111], [129.57252778, 28.40505556], [129.57252778, 28.40505556], [129.57319444, 28.40402778], [129.57494444, 28.40386111], [129.57683333, 28.40097222], [129.57858333, 28.39991667], [129.58125, 28.40011111], [129.58238889, 28.3995], [129.58477778, 28.39788889], [129.58805556, 28.39877778], [129.59083333, 28.39886111], [129.59313889, 28.398], [129.59669444, 28.39905556], [129.59866667, 28.39966667], [129.60061111, 28.39808333], [129.60080556, 28.39686111], [129.60194444, 28.39561111], [129.603, 28.39366667], [129.60433333, 28.39263889], [129.60411111, 28.39097222], [129.60136111, 28.38994444], [129.60075, 28.38836111], [129.59944444, 28.38666667], [129.5975, 28.38502778]]]}, "properties": {"source_id": "nlni_w12_watersheds_amami", "source_ref": "https://nlftp.mlit.go.jp/ksj/gmlold/data/W12/W12-52A/W12-52A-46-01.0a_GML.zip#W12-52A-2K-46_WatershedBoundary:811", "watershed_id": "89599-0025", "watershed_type_code_raw": "0", "watershed_type_ja": "流域界", "water_system_code_old": "89599", "unit_valley_code": "0025", "area_km2": 7.880317, "centroid_lat": 28.391921, "centroid_lon": 129.577174, "water_system_bureau_ja": "九州地方建設局", "water_system_category_ja": "複合水系域", "water_system_code_w05_estimated": "460125", "water_system_name_ja_estimated": "大美川", "estimate_share": 0.5373, "estimate_matched_streams": 2, "estimate_flag": "ok", "main_river_names_ja": "大美川", "estimate_method": "W05河川(鹿児島,平成19年)の流路を当ポリゴンで交差させ、交差延長最大の水系域コードをWaterSystemCodeCdで名称化した推定値", "data_year": 1977, "prefecture_code": "46", "prefecture_name_ja": "鹿児島県"}}], "note": "原データ座標系 JGD2000/(B,L)。WGS84(EPSG:4326)としてそのまま出力（差は数cm）。"}